{
    "links": {
        "self": "http://www.neowsapp.com/rest/v1/neo/3508111?api_key=iIulBulltgU6a56xZRHN4H3l9WmuAYTsLGpBGhQ2"
    },
    "id": "3508111",
    "neo_reference_id": "3508111",
    "name": "(2010 CE19)",
    "designation": "2010 CE19",
    "nasa_jpl_url": "http://ssd.jpl.nasa.gov/sbdb.cgi?sstr=3508111",
    "absolute_magnitude_h": 25.2,
    "estimated_diameter": {
        "kilometers": {
            "estimated_diameter_min": 0.0242412481,
            "estimated_diameter_max": 0.0542050786
        },
        "meters": {
            "estimated_diameter_min": 24.2412481101,
            "estimated_diameter_max": 54.2050786336
        },
        "miles": {
            "estimated_diameter_min": 0.0150628086,
            "estimated_diameter_max": 0.0336814639
        },
        "feet": {
            "estimated_diameter_min": 79.5316564495,
            "estimated_diameter_max": 177.8381901842
        }
    },
    "is_potentially_hazardous_asteroid": false,
    "close_approach_data": [
        {
            "close_approach_date": "2010-02-05",
            "close_approach_date_full": "2010-Feb-05 02:34",
            "epoch_date_close_approach": 1265337240000,
            "relative_velocity": {
                "kilometers_per_second": "8.6662383153",
                "kilometers_per_hour": "31198.4579351598",
                "miles_per_hour": "19385.5084875442"
            },
            "miss_distance": {
                "astronomical": "0.0615404131",
                "lunar": "23.9392206959",
                "kilometers": "9206314.718680097",
                "miles": "5720538.7012834586"
            },
            "orbiting_body": "Earth"
        }
    ],
    "orbital_data": {
        "orbit_id": "7",
        "orbit_determination_date": "2017-04-06 08:58:27",
        "first_observation_date": "2010-02-14",
        "last_observation_date": "2010-03-04",
        "data_arc_in_days": 18,
        "observations_used": 35,
        "orbit_uncertainty": "8",
        "minimum_orbit_intersection": ".0478279",
        "jupiter_tisserand_invariant": "3.745",
        "epoch_osculation": "2455244.5",
        "eccentricity": ".4829665329254967",
        "semi_major_axis": "1.937456421712972",
        "inclination": "7.592659574563877",
        "ascending_node_longitude": "143.1261270596665",
        "orbital_period": "985.0229318830028",
        "perihelion_distance": "1.001729811024019",
        "perihelion_argument": "326.5799909181644",
        "aphelion_distance": "2.873183032401925",
        "perihelion_time": "2455211.979009052640",
        "mean_anomaly": "11.88556769807282",
        "mean_motion": ".3654737248723864",
        "equinox": "J2000",
        "orbit_class": {
            "orbit_class_type": "APO",
            "orbit_class_description": "Near-Earth asteroid orbits which cross the Earth’s orbit similar to that of 1862 Apollo",
            "orbit_class_range": "a (semi-major axis) > 1.0 AU; q (perihelion) < 1.017 AU"
        }
    },
    "is_sentry_object": false
}